[{"OBJECT_NAME":"ONEWEB-0521","OBJECT_ID":"2022-138AC","EPOCH":"2026-04-01T03:11:44.298240","MEAN_MOTION":13.19726092,"ECCENTRICITY":0.0001476,"INCLINATION":87.9203,"RA_OF_ASC_NODE":320.3111,"ARG_OF_PERICENTER":86.6282,"MEAN_ANOMALY":273.5019,"EPHEMERIS_TYPE":0,"CLASSIFICATION_TYPE":"U","NORAD_CAT_ID":54139,"ELEMENT_SET_NO":999,"REV_AT_EPOCH":16660,"BSTAR":0.00035404999999999996,"MEAN_MOTION_DOT":1.55e-06,"MEAN_MOTION_DDOT":0.0},{"OBJECT_NAME":"ONEWEB-0522","OBJECT_ID":"2022-138AD","EPOCH":"2026-04-01T04:31:20.097120","MEAN_MOTION":13.19726775,"ECCENTRICITY":0.0001847,"INCLINATION":87.9205,"RA_OF_ASC_NODE":320.3019,"ARG_OF_PERICENTER":87.5446,"MEAN_ANOMALY":272.5898,"EPHEMERIS_TYPE":0,"CLASSIFICATION_TYPE":"U","NORAD_CAT_ID":54140,"ELEMENT_SET_NO":999,"REV_AT_EPOCH":16665,"BSTAR":5.208700000000001e-05,"MEAN_MOTION_DOT":3.4e-07,"MEAN_MOTION_DDOT":0.0},{"OBJECT_NAME":"ONEWEB-0523","OBJECT_ID":"2022-138AE","EPOCH":"2026-04-01T01:28:40.612224","MEAN_MOTION":13.20771603,"ECCENTRICITY":0.0001091,"INCLINATION":87.9145,"RA_OF_ASC_NODE":289.8388,"ARG_OF_PERICENTER":66.685,"MEAN_ANOMALY":293.4398,"EPHEMERIS_TYPE":0,"CLASSIFICATION_TYPE":"U","NORAD_CAT_ID":54141,"ELEMENT_SET_NO":999,"REV_AT_EPOCH":16912,"BSTAR":0.00013643,"MEAN_MOTION_DOT":6.8e-07,"MEAN_MOTION_DDOT":0.0},{"OBJECT_NAME":"ONEWEB-0524","OBJECT_ID":"2022-138AF","EPOCH":"2026-04-01T01:12:46.516896","MEAN_MOTION":13.20771673,"ECCENTRICITY":0.000195,"INCLINATION":87.9142,"RA_OF_ASC_NODE":289.8387,"ARG_OF_PERICENTER":61.9935,"MEAN_ANOMALY":298.1396,"EPHEMERIS_TYPE":0,"CLASSIFICATION_TYPE":"U","NORAD_CAT_ID":54142,"ELEMENT_SET_NO":999,"REV_AT_EPOCH":16912,"BSTAR":0.00020982000000000002,"MEAN_MOTION_DOT":9.8e-07,"MEAN_MOTION_DDOT":0.0},{"OBJECT_NAME":"ONEWEB-0525","OBJECT_ID":"2022-138AG","EPOCH":"2026-04-01T03:09:27.835488","MEAN_MOTION":13.19726271,"ECCENTRICITY":0.0001983,"INCLINATION":87.9192,"RA_OF_ASC_NODE":320.3255,"ARG_OF_PERICENTER":86.7161,"MEAN_ANOMALY":273.4198,"EPHEMERIS_TYPE":0,"CLASSIFICATION_TYPE":"U","NORAD_CAT_ID":54143,"ELEMENT_SET_NO":999,"REV_AT_EPOCH":16666,"BSTAR":0.00030271,"MEAN_MOTION_DOT":1.34e-06,"MEAN_MOTION_DDOT":0.0},{"OBJECT_NAME":"ONEWEB-0526","OBJECT_ID":"2022-138AH","EPOCH":"2026-04-01T03:57:12.499200","MEAN_MOTION":13.19727163,"ECCENTRICITY":0.0001844,"INCLINATION":87.9204,"RA_OF_ASC_NODE":320.3159,"ARG_OF_PERICENTER":82.9338,"MEAN_ANOMALY":277.2004,"EPHEMERIS_TYPE":0,"CLASSIFICATION_TYPE":"U","NORAD_CAT_ID":54144,"ELEMENT_SET_NO":999,"REV_AT_EPOCH":16664,"BSTAR":5.7025000000000004e-05,"MEAN_MOTION_DOT":3.6e-07,"MEAN_MOTION_DDOT":0.0},{"OBJECT_NAME":"ONEWEB-0529","OBJECT_ID":"2022-138AJ","EPOCH":"2026-04-01T04:01:46.452000","MEAN_MOTION":13.19726553,"ECCENTRICITY":0.0001946,"INCLINATION":87.9192,"RA_OF_ASC_NODE":320.3309,"ARG_OF_PERICENTER":85.6837,"MEAN_ANOMALY":274.4518,"EPHEMERIS_TYPE":0,"CLASSIFICATION_TYPE":"U","NORAD_CAT_ID":54145,"ELEMENT_SET_NO":999,"REV_AT_EPOCH":16666,"BSTAR":4.1892000000000005e-05,"MEAN_MOTION_DOT":3e-07,"MEAN_MOTION_DDOT":0.0},{"OBJECT_NAME":"ONEWEB-0531","OBJECT_ID":"2022-138AK","EPOCH":"2026-04-01T02:41:24.364320","MEAN_MOTION":13.20771707,"ECCENTRICITY":0.0001349,"INCLINATION":87.9141,"RA_OF_ASC_NODE":289.8251,"ARG_OF_PERICENTER":56.6253,"MEAN_ANOMALY":303.5009,"EPHEMERIS_TYPE":0,"CLASSIFICATION_TYPE":"U","NORAD_CAT_ID":54146,"ELEMENT_SET_NO":999,"REV_AT_EPOCH":16913,"BSTAR":0.00024955,"MEAN_MOTION_DOT":1.14e-06,"MEAN_MOTION_DDOT":0.0},{"OBJECT_NAME":"ONEWEB-0535","OBJECT_ID":"2022-138AL","EPOCH":"2026-04-01T03:00:21.754656","MEAN_MOTION":13.19726633,"ECCENTRICITY":0.0001382,"INCLINATION":87.9199,"RA_OF_ASC_NODE":320.3176,"ARG_OF_PERICENTER":78.6881,"MEAN_ANOMALY":281.4407,"EPHEMERIS_TYPE":0,"CLASSIFICATION_TYPE":"U","NORAD_CAT_ID":54147,"ELEMENT_SET_NO":999,"REV_AT_EPOCH":16667,"BSTAR":0.00033617000000000006,"MEAN_MOTION_DOT":1.48e-06,"MEAN_MOTION_DDOT":0.0},{"OBJECT_NAME":"ONEWEB-0536","OBJECT_ID":"2022-138AM","EPOCH":"2026-04-01T02:23:13.649856","MEAN_MOTION":13.20771364,"ECCENTRICITY":0.0001479,"INCLINATION":87.9128,"RA_OF_ASC_NODE":289.8594,"ARG_OF_PERICENTER":53.1083,"MEAN_ANOMALY":307.0185,"EPHEMERIS_TYPE":0,"CLASSIFICATION_TYPE":"U","NORAD_CAT_ID":54148,"ELEMENT_SET_NO":999,"REV_AT_EPOCH":16912,"BSTAR":0.00019303000000000001,"MEAN_MOTION_DOT":9.1e-07,"MEAN_MOTION_DDOT":0.0},{"OBJECT_NAME":"ONEWEB-0527","OBJECT_ID":"2022-166A","EPOCH":"2026-04-01T04:29:58.537248","MEAN_MOTION":13.21827781,"ECCENTRICITY":0.0001776,"INCLINATION":87.9173,"RA_OF_ASC_NODE":259.3398,"ARG_OF_PERICENTER":94.4835,"MEAN_ANOMALY":265.6502,"EPHEMERIS_TYPE":0,"CLASSIFICATION_TYPE":"U","NORAD_CAT_ID":54642,"ELEMENT_SET_NO":999,"REV_AT_EPOCH":16136,"BSTAR":1.7460000000000002e-05,"MEAN_MOTION_DOT":2e-07,"MEAN_MOTION_DDOT":0.0},{"OBJECT_NAME":"ONEWEB-0528","OBJECT_ID":"2022-166B","EPOCH":"2026-04-01T04:39:27.535680","MEAN_MOTION":13.2183306,"ECCENTRICITY":0.0001828,"INCLINATION":87.9174,"RA_OF_ASC_NODE":259.3425,"ARG_OF_PERICENTER":95.22,"MEAN_ANOMALY":264.9143,"EPHEMERIS_TYPE":0,"CLASSIFICATION_TYPE":"U","NORAD_CAT_ID":54643,"ELEMENT_SET_NO":999,"REV_AT_EPOCH":16137,"BSTAR":0.0020845,"MEAN_MOTION_DOT":8.74e-06,"MEAN_MOTION_DDOT":0.0},{"OBJECT_NAME":"ONEWEB-0539","OBJECT_ID":"2022-166C","EPOCH":"2026-04-01T03:44:58.018848","MEAN_MOTION":13.21828128,"ECCENTRICITY":0.0001741,"INCLINATION":87.9181,"RA_OF_ASC_NODE":259.3169,"ARG_OF_PERICENTER":104.8459,"MEAN_ANOMALY":255.2868,"EPHEMERIS_TYPE":0,"CLASSIFICATION_TYPE":"U","NORAD_CAT_ID":54644,"ELEMENT_SET_NO":999,"REV_AT_EPOCH":16136,"BSTAR":-8.2148e-05,"MEAN_MOTION_DOT":-2.1e-07,"MEAN_MOTION_DDOT":0.0},{"OBJECT_NAME":"ONEWEB-0540","OBJECT_ID":"2022-166D","EPOCH":"2026-04-01T03:54:39.382848","MEAN_MOTION":13.21825848,"ECCENTRICITY":0.0001677,"INCLINATION":87.9174,"RA_OF_ASC_NODE":259.351,"ARG_OF_PERICENTER":100.1211,"MEAN_ANOMALY":260.0113,"EPHEMERIS_TYPE":0,"CLASSIFICATION_TYPE":"U","NORAD_CAT_ID":54645,"ELEMENT_SET_NO":999,"REV_AT_EPOCH":16135,"BSTAR":-0.00012094,"MEAN_MOTION_DOT":-3.7e-07,"MEAN_MOTION_DDOT":0.0},{"OBJECT_NAME":"ONEWEB-0542","OBJECT_ID":"2022-166E","EPOCH":"2026-04-01T00:21:11.316384","MEAN_MOTION":13.2182563,"ECCENTRICITY":0.0001622,"INCLINATION":87.9183,"RA_OF_ASC_NODE":259.3424,"ARG_OF_PERICENTER":107.6599,"MEAN_ANOMALY":252.4712,"EPHEMERIS_TYPE":0,"CLASSIFICATION_TYPE":"U","NORAD_CAT_ID":54646,"ELEMENT_SET_NO":999,"REV_AT_EPOCH":16134,"BSTAR":-0.00011697000000000001,"MEAN_MOTION_DOT":-3.5e-07,"MEAN_MOTION_DDOT":0.0},{"OBJECT_NAME":"ONEWEB-0545","OBJECT_ID":"2022-166F","EPOCH":"2026-03-31T23:31:24.008736","MEAN_MOTION":13.21824041,"ECCENTRICITY":0.0001505,"INCLINATION":87.9174,"RA_OF_ASC_NODE":259.3674,"ARG_OF_PERICENTER":113.1393,"MEAN_ANOMALY":246.99,"EPHEMERIS_TYPE":0,"CLASSIFICATION_TYPE":"U","NORAD_CAT_ID":54647,"ELEMENT_SET_NO":999,"REV_AT_EPOCH":16130,"BSTAR":-0.00010771,"MEAN_MOTION_DOT":-3.1e-07,"MEAN_MOTION_DDOT":0.0}]