ONEWEB-0521             
1 54139U 22138AC  26091.13315160  .00000155  00000+0  35405-3 0  9996
2 54139  87.9203 320.3111 0001476  86.6282 273.5019 13.19726092166600
ONEWEB-0522             
1 54140U 22138AD  26091.18842705  .00000034  00000+0  52087-4 0  9995
2 54140  87.9205 320.3019 0001847  87.5446 272.5898 13.19726775166652
ONEWEB-0523             
1 54141U 22138AE  26091.06158116  .00000068  00000+0  13643-3 0  9990
2 54141  87.9145 289.8388 0001091  66.6850 293.4398 13.20771603169126
ONEWEB-0524             
1 54142U 22138AF  26091.05053839  .00000098  00000+0  20982-3 0  9993
2 54142  87.9142 289.8387 0001950  61.9935 298.1396 13.20771673169126
ONEWEB-0525             
1 54143U 22138AG  26091.13157217  .00000134  00000+0  30271-3 0  9991
2 54143  87.9192 320.3255 0001983  86.7161 273.4198 13.19726271166663
ONEWEB-0526             
1 54144U 22138AH  26091.16472800  .00000036  00000+0  57025-4 0  9991
2 54144  87.9204 320.3159 0001844  82.9338 277.2004 13.19727163166648
ONEWEB-0529             
1 54145U 22138AJ  26091.16789875  .00000030  00000+0  41892-4 0  9994
2 54145  87.9192 320.3309 0001946  85.6837 274.4518 13.19726553166662
ONEWEB-0531             
1 54146U 22138AK  26091.11208755  .00000114  00000+0  24955-3 0  9996
2 54146  87.9141 289.8251 0001349  56.6253 303.5009 13.20771707169136
ONEWEB-0535             
1 54147U 22138AL  26091.12525179  .00000148  00000+0  33617-3 0  9992
2 54147  87.9199 320.3176 0001382  78.6881 281.4407 13.19726633166673
ONEWEB-0536             
1 54148U 22138AM  26091.09946354  .00000091  00000+0  19303-3 0  9994
2 54148  87.9128 289.8594 0001479  53.1083 307.0185 13.20771364169122
ONEWEB-0527             
1 54642U 22166A   26091.18748307  .00000020  00000+0  17460-4 0  9997
2 54642  87.9173 259.3398 0001776  94.4835 265.6502 13.21827781161364
ONEWEB-0528             
1 54643U 22166B   26091.19406870  .00000874  00000+0  20845-2 0  9991
2 54643  87.9174 259.3425 0001828  95.2200 264.9143 13.21833060161371
ONEWEB-0539             
1 54644U 22166C   26091.15622707 -.00000021  00000+0 -82148-4 0  9999
2 54644  87.9181 259.3169 0001741 104.8459 255.2868 13.21828128161367
ONEWEB-0540             
1 54645U 22166D   26091.16295582 -.00000037  00000+0 -12094-3 0  9997
2 54645  87.9174 259.3510 0001677 100.1211 260.0113 13.21825848161355
ONEWEB-0542             
1 54646U 22166E   26091.01471431 -.00000035  00000+0 -11697-3 0  9997
2 54646  87.9183 259.3424 0001622 107.6599 252.4712 13.21825630161349
ONEWEB-0545             
1 54647U 22166F   26090.98013899 -.00000031  00000+0 -10771-3 0  9991
2 54647  87.9174 259.3674 0001505 113.1393 246.9900 13.21824041161309
